CCSDS_OMM_VERS = 2.0
CREATION_DATE  = 
ORIGINATOR     = 

OBJECT_NAME    = STARLINK-36654
OBJECT_ID      = 2026-033T
CENTER_NAME    = EARTH
REF_FRAME      = TEME
TIME_SYSTEM    = UTC
MEAN_ELEMENT_THEORY = SGP/SGP4

EPOCH          = 2026-03-05T18:26:01.056192
MEAN_MOTION    = 15.82070400
ECCENTRICITY   = .0002514
INCLINATION    = 42.9972
RA_OF_ASC_NODE = 295.3874
ARG_OF_PERICENTER = 273.9909
MEAN_ANOMALY   = 86.0675

EPHEMERIS_TYPE = 0
CLASSIFICATION_TYPE = U
NORAD_CAT_ID   = 67838
ELEMENT_SET_NO = 999
REV_AT_EPOCH   = 400
BSTAR          = .8548E-3
MEAN_MOTION_DOT = .183808E-2
MEAN_MOTION_DDOT = 0

CCSDS_OMM_VERS = 2.0
CREATION_DATE  = 
ORIGINATOR     = 

OBJECT_NAME    = STARLINK-36652
OBJECT_ID      = 2026-033U
CENTER_NAME    = EARTH
REF_FRAME      = TEME
TIME_SYSTEM    = UTC
MEAN_ELEMENT_THEORY = SGP/SGP4

EPOCH          = 2026-03-05T18:24:56.194848
MEAN_MOTION    = 15.82025688
ECCENTRICITY   = .0001373
INCLINATION    = 42.9965
RA_OF_ASC_NODE = 295.3818
ARG_OF_PERICENTER = 232.3868
MEAN_ANOMALY   = 127.6879

EPHEMERIS_TYPE = 0
CLASSIFICATION_TYPE = U
NORAD_CAT_ID   = 67839
ELEMENT_SET_NO = 999
REV_AT_EPOCH   = 400
BSTAR          = .58594E-3
MEAN_MOTION_DOT = .124692E-2
MEAN_MOTION_DDOT = 0

CCSDS_OMM_VERS = 2.0
CREATION_DATE  = 
ORIGINATOR     = 

OBJECT_NAME    = STARLINK-36651
OBJECT_ID      = 2026-033V
CENTER_NAME    = EARTH
REF_FRAME      = TEME
TIME_SYSTEM    = UTC
MEAN_ELEMENT_THEORY = SGP/SGP4

EPOCH          = 2026-03-05T18:23:51.255744
MEAN_MOTION    = 15.82018229
ECCENTRICITY   = .0005681
INCLINATION    = 42.9971
RA_OF_ASC_NODE = 295.3748
ARG_OF_PERICENTER = 151.6202
MEAN_ANOMALY   = 208.4980

EPHEMERIS_TYPE = 0
CLASSIFICATION_TYPE = U
NORAD_CAT_ID   = 67840
ELEMENT_SET_NO = 999
REV_AT_EPOCH   = 400
BSTAR          = .16062E-2
MEAN_MOTION_DOT = .352034E-2
MEAN_MOTION_DDOT = 0

CCSDS_OMM_VERS = 2.0
CREATION_DATE  = 
ORIGINATOR     = 

OBJECT_NAME    = STARLINK-36656
OBJECT_ID      = 2026-033W
CENTER_NAME    = EARTH
REF_FRAME      = TEME
TIME_SYSTEM    = UTC
MEAN_ELEMENT_THEORY = SGP/SGP4

EPOCH          = 2026-03-05T16:51:52.219008
MEAN_MOTION    = 15.82079868
ECCENTRICITY   = .000225
INCLINATION    = 42.9971
RA_OF_ASC_NODE = 295.7559
ARG_OF_PERICENTER = 225.3337
MEAN_ANOMALY   = 134.7352

EPHEMERIS_TYPE = 0
CLASSIFICATION_TYPE = U
NORAD_CAT_ID   = 67841
ELEMENT_SET_NO = 999
REV_AT_EPOCH   = 399
BSTAR          = .20035E-2
MEAN_MOTION_DOT = .445087E-2
MEAN_MOTION_DDOT = 0

CCSDS_OMM_VERS = 2.0
CREATION_DATE  = 
ORIGINATOR     = 

OBJECT_NAME    = STARLINK-36653
OBJECT_ID      = 2026-033X
CENTER_NAME    = EARTH
REF_FRAME      = TEME
TIME_SYSTEM    = UTC
MEAN_ELEMENT_THEORY = SGP/SGP4

EPOCH          = 2026-03-05T18:21:42.187968
MEAN_MOTION    = 15.82007442
ECCENTRICITY   = .0003161
INCLINATION    = 42.9972
RA_OF_ASC_NODE = 295.3629
ARG_OF_PERICENTER = 171.8388
MEAN_ANOMALY   = 188.2535

EPHEMERIS_TYPE = 0
CLASSIFICATION_TYPE = U
NORAD_CAT_ID   = 67842
ELEMENT_SET_NO = 999
REV_AT_EPOCH   = 400
BSTAR          = .14658E-2
MEAN_MOTION_DOT = .319691E-2
MEAN_MOTION_DDOT = 0

CCSDS_OMM_VERS = 2.0
CREATION_DATE  = 
ORIGINATOR     = 

OBJECT_NAME    = STARLINK-36589
OBJECT_ID      = 2026-033Y
CENTER_NAME    = EARTH
REF_FRAME      = TEME
TIME_SYSTEM    = UTC
MEAN_ELEMENT_THEORY = SGP/SGP4

EPOCH          = 2026-03-05T18:20:37.696416
MEAN_MOTION    = 15.81984969
ECCENTRICITY   = .0002108
INCLINATION    = 42.9968
RA_OF_ASC_NODE = 295.3562
ARG_OF_PERICENTER = 275.6594
MEAN_ANOMALY   = 84.4038

EPHEMERIS_TYPE = 0
CLASSIFICATION_TYPE = U
NORAD_CAT_ID   = 67843
ELEMENT_SET_NO = 999
REV_AT_EPOCH   = 400
BSTAR          = .1951E-2
MEAN_MOTION_DOT = .43076E-2
MEAN_MOTION_DDOT = 0

CCSDS_OMM_VERS = 2.0
CREATION_DATE  = 
ORIGINATOR     = 

OBJECT_NAME    = STARLINK-36598
OBJECT_ID      = 2026-033Z
CENTER_NAME    = EARTH
REF_FRAME      = TEME
TIME_SYSTEM    = UTC
MEAN_ELEMENT_THEORY = SGP/SGP4

EPOCH          = 2026-03-05T18:19:32.871360
MEAN_MOTION    = 15.81992082
ECCENTRICITY   = .00024
INCLINATION    = 42.9981
RA_OF_ASC_NODE = 295.3518
ARG_OF_PERICENTER = 287.6988
MEAN_ANOMALY   = 72.3622

EPHEMERIS_TYPE = 0
CLASSIFICATION_TYPE = U
NORAD_CAT_ID   = 67844
ELEMENT_SET_NO = 999
REV_AT_EPOCH   = 400
BSTAR          = .16068E-2
MEAN_MOTION_DOT = .351515E-2
MEAN_MOTION_DDOT = 0

CCSDS_OMM_VERS = 2.0
CREATION_DATE  = 
ORIGINATOR     = 

OBJECT_NAME    = STARLINK-36606
OBJECT_ID      = 2026-033AA
CENTER_NAME    = EARTH
REF_FRAME      = TEME
TIME_SYSTEM    = UTC
MEAN_ELEMENT_THEORY = SGP/SGP4

EPOCH          = 2026-03-05T18:18:28.280448
MEAN_MOTION    = 15.82053823
ECCENTRICITY   = .0001951
INCLINATION    = 42.9970
RA_OF_ASC_NODE = 295.3444
ARG_OF_PERICENTER = 271.3192
MEAN_ANOMALY   = 88.7456

EPHEMERIS_TYPE = 0
CLASSIFICATION_TYPE = U
NORAD_CAT_ID   = 67845
ELEMENT_SET_NO = 999
REV_AT_EPOCH   = 400
BSTAR          = .77331E-3
MEAN_MOTION_DOT = .165749E-2
MEAN_MOTION_DDOT = 0

CCSDS_OMM_VERS = 2.0
CREATION_DATE  = 
ORIGINATOR     = 

OBJECT_NAME    = STARLINK-36658
OBJECT_ID      = 2026-033AB
CENTER_NAME    = EARTH
REF_FRAME      = TEME
TIME_SYSTEM    = UTC
MEAN_ELEMENT_THEORY = SGP/SGP4

EPOCH          = 2026-03-05T18:17:23.256672
MEAN_MOTION    = 15.82111776
ECCENTRICITY   = .0002193
INCLINATION    = 42.9967
RA_OF_ASC_NODE = 295.3373
ARG_OF_PERICENTER = 244.4099
MEAN_ANOMALY   = 115.6546

EPHEMERIS_TYPE = 0
CLASSIFICATION_TYPE = U
NORAD_CAT_ID   = 67846
ELEMENT_SET_NO = 999
REV_AT_EPOCH   = 400
BSTAR          = .10754E-2
MEAN_MOTION_DOT = .233159E-2
MEAN_MOTION_DDOT = 0

CCSDS_OMM_VERS = 2.0
CREATION_DATE  = 
ORIGINATOR     = 

OBJECT_NAME    = STARLINK-36618
OBJECT_ID      = 2026-033AC
CENTER_NAME    = EARTH
REF_FRAME      = TEME
TIME_SYSTEM    = UTC
MEAN_ELEMENT_THEORY = SGP/SGP4

EPOCH          = 2026-03-05T16:00:00.999936
MEAN_MOTION    = 15.93139811
ECCENTRICITY   = .0002103
INCLINATION    = 42.9848
RA_OF_ASC_NODE = 294.0562
ARG_OF_PERICENTER = 265.4848
MEAN_ANOMALY   = 285.8816

EPHEMERIS_TYPE = 0
CLASSIFICATION_TYPE = U
NORAD_CAT_ID   = 67847
ELEMENT_SET_NO = 999
REV_AT_EPOCH   = 401
BSTAR          = -.32621E-2
MEAN_MOTION_DOT = -.1190593E-1
MEAN_MOTION_DDOT = .42026E-3

CCSDS_OMM_VERS = 2.0
CREATION_DATE  = 
ORIGINATOR     = 

OBJECT_NAME    = STARLINK-36660
OBJECT_ID      = 2026-033AD
CENTER_NAME    = EARTH
REF_FRAME      = TEME
TIME_SYSTEM    = UTC
MEAN_ELEMENT_THEORY = SGP/SGP4

EPOCH          = 2026-03-05T18:16:18.499008
MEAN_MOTION    = 15.82091579
ECCENTRICITY   = .0001884
INCLINATION    = 42.9967
RA_OF_ASC_NODE = 295.3327
ARG_OF_PERICENTER = 264.0050
MEAN_ANOMALY   = 96.0607

EPHEMERIS_TYPE = 0
CLASSIFICATION_TYPE = U
NORAD_CAT_ID   = 67848
ELEMENT_SET_NO = 999
REV_AT_EPOCH   = 400
BSTAR          = .11737E-2
MEAN_MOTION_DOT = .254914E-2
MEAN_MOTION_DDOT = 0

CCSDS_OMM_VERS = 2.0
CREATION_DATE  = 
ORIGINATOR     = 

OBJECT_NAME    = STARLINK-36602
OBJECT_ID      = 2026-033AE
CENTER_NAME    = EARTH
REF_FRAME      = TEME
TIME_SYSTEM    = UTC
MEAN_ELEMENT_THEORY = SGP/SGP4

EPOCH          = 2026-03-05T18:15:13.837248
MEAN_MOTION    = 15.82070215
ECCENTRICITY   = .0001985
INCLINATION    = 42.9969
RA_OF_ASC_NODE = 295.3246
ARG_OF_PERICENTER = 250.2157
MEAN_ANOMALY   = 109.8501

EPHEMERIS_TYPE = 0
CLASSIFICATION_TYPE = U
NORAD_CAT_ID   = 67849
ELEMENT_SET_NO = 999
REV_AT_EPOCH   = 400
BSTAR          = .77384E-3
MEAN_MOTION_DOT = .165994E-2
MEAN_MOTION_DDOT = 0

